[{"OBJECT_NAME":"YAOGAN-39 02A","OBJECT_ID":"2023-145A","EPOCH":"2026-03-09T13:29:31.975296","MEAN_MOTION":15.23019263,"ECCENTRICITY":0.0002832,"INCLINATION":35.0023,"RA_OF_ASC_NODE":106.9754,"ARG_OF_PERICENTER":165.4765,"MEAN_ANOMALY":194.6032,"EPHEMERIS_TYPE":0,"CLASSIFICATION_TYPE":"U","NORAD_CAT_ID":57886,"ELEMENT_SET_NO":999,"REV_AT_EPOCH":13797,"BSTAR":0.00057738,"MEAN_MOTION_DOT":0.00013907,"MEAN_MOTION_DDOT":0},{"OBJECT_NAME":"TIANMU-1 15","OBJECT_ID":"2024-004A","EPOCH":"2026-03-09T23:35:22.816608","MEAN_MOTION":15.25840188,"ECCENTRICITY":0.00066612,"INCLINATION":97.4675,"RA_OF_ASC_NODE":255.2203,"ARG_OF_PERICENTER":349.0037,"MEAN_ANOMALY":11.1054,"EPHEMERIS_TYPE":0,"CLASSIFICATION_TYPE":"U","NORAD_CAT_ID":58700,"ELEMENT_SET_NO":999,"REV_AT_EPOCH":12064,"BSTAR":0.0003159702,"MEAN_MOTION_DOT":8.018e-5,"MEAN_MOTION_DDOT":0}]
